[{"OBJECT_NAME":"FGN-100-D2","OBJECT_ID":"2025-248G","EPOCH":"2026-03-09T00:05:30.712416","MEAN_MOTION":15.19697424,"ECCENTRICITY":0.00052703,"INCLINATION":45.4006,"RA_OF_ASC_NODE":298.0063,"ARG_OF_PERICENTER":203.9196,"MEAN_ANOMALY":156.1446,"EPHEMERIS_TYPE":0,"CLASSIFICATION_TYPE":"U","NORAD_CAT_ID":66299,"ELEMENT_SET_NO":999,"REV_AT_EPOCH":1927,"BSTAR":0.00030465999,"MEAN_MOTION_DOT":6.346e-5,"MEAN_MOTION_DDOT":0},{"OBJECT_NAME":"CZ-6A DEB","OBJECT_ID":"2024-140EZ","EPOCH":"2026-03-09T16:13:02.096544","MEAN_MOTION":15.06200416,"ECCENTRICITY":0.00757943,"INCLINATION":89.319,"RA_OF_ASC_NODE":303.8689,"ARG_OF_PERICENTER":93.3463,"MEAN_ANOMALY":267.6449,"EPHEMERIS_TYPE":0,"CLASSIFICATION_TYPE":"U","NORAD_CAT_ID":60774,"ELEMENT_SET_NO":999,"REV_AT_EPOCH":8499,"BSTAR":0.003121721,"MEAN_MOTION_DOT":0.00049072,"MEAN_MOTION_DDOT":0}]
